GORIZONT 1              
1 11158U 78118A   24197.46963376  .00000034  00000+0  00000+0 0  9993
2 11158  11.4961 176.5074 3243862 322.7952  18.4012  1.00252431115908
GORIZONT 2              
1 11440U 79062A   24197.86258587  .00000067  00000+0  00000+0 0  9997
2 11440   7.4654 293.2153 0002515 289.0190  83.3350  1.00258632130996
GORIZONT 3              
1 11648U 79105A   24197.92987478  .00000173  00000+0  00000+0 0  9998
2 11648   7.6404 294.8451 0012785 236.3214 137.2459  1.00270307115457
GORIZONT 4              
1 11841U 80049A   24198.52936458 -.00000219  00000+0  00000+0 0  9993
2 11841   8.8406 301.3896 0000665 283.2318  54.0380  0.98632023226606
GORIZONT 5              
1 13092U 82020A   24197.22751278 -.00000185  00000+0  00000+0 0  9997
2 13092   9.9182 306.9766 0033980 233.3998 168.7546  0.98533772114684
GORIZONT 6              
1 13624U 82103A   24197.12878323 -.00000205  00000+0  00000+0 0  9993
2 13624   8.8726 307.2388 0001177 232.7524 128.7418  1.00262621113917
GORIZONT 7              
1 14160U 83066A   24198.53107397 -.00000148  00000+0  00000+0 0  9996
2 14160  10.6882 317.2831 0010219 328.2526  24.3705  0.98349658147853
GORIZONT 8              
1 14532U 83118A   24198.48587538  .00000009  00000+0  00000+0 0  9995
2 14532  10.9035 319.2603 0029751 168.1531 216.3395  0.98269021113627
GORIZONT 9              
1 14940U 84041A   24198.62573545 -.00000255  00000+0  00000+0 0  9997
2 14940  10.0791 317.1046 0005155 239.1283  59.8399  1.00257009114917
GORIZONT 10             
1 15144U 84078A   24198.22603785 -.00000242  00000+0  00000+0 0  9996
2 15144  10.1988 318.1380 0001064 242.3901 135.2182  1.00308620147554
GORIZONT 11             
1 15484U 85007A   24198.50317191  .00000155  00000+0  00000+0 0  9992
2 15484  10.4182 320.2337 0004662 188.2008  11.3986  1.00169961145602
GORIZONT 12             
1 16769U 86044A   24198.55308521 -.00000306  00000+0  00000+0 0  9992
2 16769  11.1712 325.7696 0002447 242.2458  29.7630  1.00232275140235
GORIZONT 13             
1 17083U 86090A   24198.16836557 -.00000156  00000+0  00000+0 0  9998
2 17083  13.2047 333.2917 0012268 350.1865 190.9410  0.96727564111860
GORIZONT 14             
1 17969U 87040A   24198.00192429 -.00000061  00000+0  00000+0 0  9998
2 17969  11.9239 324.3729 0031714 192.5706 180.1487  0.97658654113010
GORIZONT 15             
1 19017U 88028A   24198.48272240 -.00000049  00000+0  00000+0 0  9999
2 19017  13.5823 335.8768 0037531 174.6781 188.2938  0.97827961112658
GORIZONT 16             
1 19397U 88071A   24198.39626990 -.00000134  00000+0  00000+0 0  9998
2 19397  12.4169 334.5588 0013024  85.0250 286.1949  0.99967058131232
GORIZONT 17             
1 19765U 89004A   24198.50195359  .00000022  00000+0  00000+0 0  9992
2 19765  13.0539 338.0198 0023449 153.0279  21.6418  0.99065911128634
GORIZONT 18             
1 20107U 89052A   24198.17106326 -.00000169  00000+0  00000+0 0  9999
2 20107  13.1378 339.2381 0033457 331.7382 218.1417  0.99405642127444
GORIZONT 19             
1 20263U 89081A   24198.00088002  .00000142  00000+0  00000+0 0  9996
2 20263  12.8473 338.3428 0004426 221.1361 131.4846  1.00252073127460
GORIZONT 20             
1 20659U 90054A   24198.62121619 -.00000246  00000+0  00000+0 0  9993
2 20659  13.3689 341.0740 0007473 197.6274  70.6311  1.00307142124665
GORIZONT 21             
1 20923U 90094A   24198.57145249  .00000136  00000+0  00000+0 0  9997
2 20923  13.4044 341.8144 0006200 219.0581 326.9734  1.00351415123429
GORIZONT 22             
1 20953U 90102A   24197.63601852 -.00000009  00000+0  00000+0 0  9993
2 20953  13.3761 342.2572 0001121   4.3728 177.2416  1.00271710123335
GORIZONT 23             
1 21533U 91046A   24198.12202271 -.00000127  00000+0  00000+0 0  9994
2 21533  14.2603 346.4800 0003749 305.1904 235.9106  0.98910715 39752
GORIZONT 24             
1 21759U 91074A   24198.11646556 -.00000128  00000+0  00000+0 0  9993
2 21759  14.4759 348.4691 0019995 241.0496 302.5905  0.98444752118052
GORIZONT 25             
1 21922U 92017A   24198.50430321  .00000121  00000+0  00000+0 0  9999
2 21922  14.0008 347.6618 0027837 102.7972  74.7137  0.99845648117934
GORIZONT 26             
1 22041U 92043A   24198.11854800 -.00000013  00000+0  00000+0 0  9991
2 22041  14.2360 349.7753 0032617 250.2007 297.7986  0.99244799116515
GORIZONT 27             
1 22245U 92082A   24198.11646556  .00000110  00000+0  00000+0 0  9994
2 22245  14.1411 349.1790 0010033  26.2668 161.8446  1.00184535120098
GORIZONT 28             
1 22880U 93069A   24198.52977885 -.00000338  00000+0  00000+0 0  9995
2 22880  14.4071 353.1538 0034889 152.8780 106.7406  0.99655386112144
GORIZONT 29             
1 22907U 93072A   24198.07150828  .00000127  00000+0  00000+0 0  9994
2 22907  14.3012 352.5356 0008024 357.4679   1.8749  1.00135350112143
GORIZONT 30             
1 23108U 94030A   24198.20754903 -.00000048  00000+0  00000+0 0  9995
2 23108  14.3436 353.4273 0003295 203.5683 168.9545  1.00254041110434
GORIZONT 31             
1 23775U 96005A   24197.63993454  .00000054  00000+0  00000+0 0  9997
2 23775  14.4640 359.7828 0020792 220.2633 324.9435  0.99894853104049
GORIZONT 32             
1 23880U 96034A   24198.20824521 -.00000033  00000+0  00000+0 0  9996
2 23880  14.4301   0.2363 0006227   0.1147   9.0735  1.00206041103013
GORIZONT 33             
1 26372U 00029A   24198.60331380 -.00000192  00000+0  00000+0 0  9990
2 26372  13.5213  11.8280 0002297 173.1960  49.0275  1.00394340 88405